STARLINK-30528          
1 57967U 23151D   26068.07017937 -.00001903  00000+0 -59648-4 0  9992
2 57967  43.0001 339.3327 0001339 277.3865  82.6834 15.27575133135670
FLOCK 4G-14             
1 62667U 25009BL  26068.75869712  .00011310  00000+0  42676-3 0  9993
2 62667  97.4064 151.1836 0003006 318.3639  41.7371 15.27197201 63711
